BEIDOU 3 (C01)          
1 36287U 10001A   22299.55327020 -.00000266  00000+0  00000+0 0  9999
2 36287   1.7392  48.7755 0000662 289.3867  36.3663  1.00274209 46825
BEIDOU 5 (C06)          
1 36828U 10036A   22299.41165571 -.00000066  00000+0  00000+0 0  9992
2 36828  54.1976 175.0335 0030205 185.2057 289.7256  1.00260774 44894
BEIDOU 6 (C04)          
1 37210U 10057A   22299.23782797 -.00000098  00000+0  00000+0 0  9991
2 37210   0.7844  42.2426 0007291 157.5117  80.5064  1.00272675 43947
BEIDOU 7 (C07)          
1 37256U 10068A   22299.52674623 -.00000197  00000+0  00000+0 0  9993
2 37256  49.9815 288.0758 0023370 206.9026 197.2240  1.00265435 43467
BEIDOU 8 (C08)          
1 37384U 11013A   22299.59544987 -.00000190  00000+0  00000+0 0  9995
2 37384  60.4842  52.9659 0024588 180.2746 124.4252  1.00272971 42333
BEIDOU 9 (C09)          
1 37763U 11038A   22299.52501359 -.00000011  00000+0  00000+0 0  9994
2 37763  54.4771 177.5385 0098415 227.2377 271.4127  1.00254625 41317
BEIDOU 10 (C10)         
1 37948U 11073A   22298.83699613 -.00000148  00000+0  00000+0 0  9993
2 37948  50.0970 287.7297 0086623 220.4101 282.6575  1.00264491 40063
BEIDOU 11 (C05)         
1 38091U 12008A   22299.59563307  .00000070  00000+0  00000+0 0  9999
2 38091   1.8572  70.3030 0008947 332.3488 265.5663  1.00268788 39148
BEIDOU 12 (C11)         
1 38250U 12018A   22299.13790618 -.00000062  00000+0  00000+0 0  9996
2 38250  56.6511 349.2437 0024236 251.8748  96.9910  1.86234400 71514
BEIDOU 13 (C12)         
1 38251U 12018B   22299.12405491 -.00000062  00000+0  00000+0 0  9998
2 38251  56.5667 348.5598 0015051 252.5881 131.1289  1.86234180 71524
BEIDOU 15 (C14)         
1 38775U 12050B   22299.32480060  .00000062  00000+0  00000+0 0  9991
2 38775  55.4784 107.2810 0011168 334.0420  20.0289  1.86231322 68897
BEIDOU 16 (C02)         
1 38953U 12059A   22299.53140222 -.00000161  00000+0  00000+0 0  9995
2 38953   1.2448  81.6136 0024044 294.0898 294.4328  1.00275062 36710
BEIDOU 17 (C31)         
1 40549U 15019A   22299.52966521 -.00000159  00000+0  00000+0 0  9992
2 40549  51.6601 311.2298 0038513 199.4820 170.3426  1.00268755 27750
BEIDOU 18 (C57)         
1 40748U 15037A   22299.31948991 -.00000062  00000+0  00000+0 0  9994
2 40748  55.8164 347.3404 0001144 342.6901  81.3394  1.86233394 49352
BEIDOU 19 (C58)         
1 40749U 15037B   22299.55327020 -.00000063  00000+0  00000+0 0  9996
2 40749  55.8202 347.3230 0004357 294.0132  60.9013  1.86233038 49343
BEIDOU 20 (C18)         
1 40938U 15053A   22299.39910366 -.00000138  00000+0  00000+0 0  9990
2 40938  51.3028 274.3649 0045348 200.5698 159.0638  1.00262719 26013
BEIDOU IGSO-6 (C13)     
1 41434U 16021A   22298.85913120 -.00000149  00000+0  00000+0 0  9991
2 41434  58.2927  51.4887 0046334 216.0184 169.0690  1.00258249 24149
BEIDOU-2 G7 (C03)       
1 41586U 16037A   22299.46504271 -.00000340  00000+0  00000+0 0  9990
2 41586   1.6642  68.6916 0008077 353.6954 250.3880  1.00275533 23454
BEIDOU-3 M1 (C19)       
1 43001U 17069A   22298.99425137  .00000064  00000+0  00000+0 0  9992
2 43001  55.6311 107.3098 0007264 292.7984 356.0389  1.86231656 33827
BEIDOU-3 M2 (C20)       
1 43002U 17069B   22299.22800436  .00000063  00000+0  00000+0 0  9998
2 43002  55.6306 107.3379 0005574 326.5375 161.8599  1.86231300 33827
BEIDOU-3 M3 (C27)       
1 43107U 18003A   22299.28353146 -.00000064  00000+0  00000+0 0  9992
2 43107  55.2690 348.2004 0003331  66.2740 265.6838  1.86232533 32589
BEIDOU-3 M4 (C28)       
1 43108U 18003B   22299.52286693 -.00000065  00000+0  00000+0 0  9993
2 43108  55.2620 348.1809 0004203 244.3639 291.2043  1.86230941 32595
BEIDOU-3 M5 (C21)       
1 43207U 18018A   22298.42860144  .00000068  00000+0  00000+0 0  9998
2 43207  55.5907 107.4377 0004141  10.0559 214.0848  1.86231564 31959
BEIDOU-3 M6 (C22)       
1 43208U 18018B   22298.69798096  .00000066  00000+0  00000+0 0  9992
2 43208  55.5885 107.4339 0005204 309.0944  50.8859  1.86231556 31963
BEIDOU-3 M7 (C29)       
1 43245U 18029A   22297.30605100 -.00000062  00000+0  00000+0 0  9992
2 43245  55.1783 346.0285 0001249 225.0522 131.6271  1.86232658 31085
BEIDOU-3 M8 (C30)       
1 43246U 18029B   22299.27250759 -.00000062  00000+0  10000-3 0  9992
2 43246  55.1743 345.9893 0003089 342.3892 299.3537  1.86232940 31117
BEIDOU IGSO-7 (C16)     
1 43539U 18057A   22298.59594470 -.00000076  00000+0  00000+0 0  9993
2 43539  55.0888 174.5809 0051440 226.6842 321.7491  1.00270808 15816
BEIDOU-3 M9 (C23)       
1 43581U 18062A   22299.34769464  .00000023  00000+0  00000+0 0  9998
2 43581  54.2429 227.6056 0004627 290.1521 253.3535  1.86231979 28862
BEIDOU-3 M10 (C24)      
1 43582U 18062B   22299.05854769  .00000021  00000+0  00000+0 0  9998
2 43582  54.2433 227.6045 0005830 357.8493  83.7537  1.86232495 28863
BEIDOU-3 M11 (C25)      
1 43602U 18067A   22299.20246897  .00000023  00000+0  00000+0 0  9992
2 43602  54.3263 226.2266 0007348   7.8114 211.3611  1.86231550 28353
BEIDOU-3 M12 (C26)      
1 43603U 18067B   22299.28288102  .00000024  00000+0  00000+0 0  9997
2 43603  54.3232 226.1904 0004598 355.2050 188.2304  1.86231488 28374
BEIDOU-3 M13 (C32)      
1 43622U 18072A   22299.27959889  .00000062  00000+0  00000+0 0  9992
2 43622  55.5582 106.9602 0004054 285.6151 284.5642  1.86231641 27882
BEIDOU-3 M14 (C33)      
1 43623U 18072B   22299.37969308  .00000061  00000+0  00000+0 0  9990
2 43623  55.5601 106.9493 0002413 338.4930  29.0349  1.86231641 27899
BEIDOU-3 M15 (C34)      
1 43647U 18078A   22299.06523260 -.00000062  00000+0  10000-3 0  9998
2 43647  55.0719 346.1148 0005324 355.8929  56.5274  1.86233067 27391
BEIDOU-3 M16 (C35)      
1 43648U 18078B   22299.26342799 -.00000063  00000+0  00000+0 0  9993
2 43648  55.0681 346.1140 0002965   8.5041  84.3216  1.86232285 27416
BEIDOU-3 G1 (C59)       
1 43683U 18085A   22299.47088514 -.00000264  00000+0  00000+0 0  9998
2 43683   1.0490 146.6437 0004380  54.8304 142.9424  1.00270296 14727
BEIDOU-3 M17 (C36)      
1 43706U 18093A   22298.20148437  .00000014  00000+0  00000+0 0  9996
2 43706  54.3249 227.5408 0009625 283.1242  76.7737  1.86231868 26751
BEIDOU-3 M18 (C37)      
1 43707U 18093B   22299.41676149  .00000024  00000+0  00000+0 0  9998
2 43707  54.3257 227.4888 0008778 305.6935 240.3411  1.86232317 26768
BEIDOU-3 IGSO-1 (C38)   
1 44204U 19023A   22298.83642764 -.00000219  00000+0  00000+0 0  9993
2 44204  56.7555  51.5779 0024097 190.5196 212.7836  1.00270395 13028
BEIDOU-2 G8             
1 44231U 19027A   22299.21926175 -.00000232  00000+0  00000+0 0  9996
2 44231   1.1721  79.5388 0006300 123.1407  55.3817  1.00275067 12735
BEIDOU-3 IGSO-2 (C39)   
1 44337U 19035A   22299.53872705 -.00000072  00000+0  00000+0 0  9998
2 44337  55.1249 170.5585 0025478 189.7302 347.8000  1.00264186 12368
BEIDOU-3 M23 (C45)      
1 44542U 19061A   22299.21174610  .00000023  00000+0  00000+0 0  9995
2 44542  54.5511 227.6739 0008928 341.8628  18.1167  1.86231461 21028
BEIDOU-3 M24 (C46)      
1 44543U 19061B   22298.58028880  .00000018  00000+0  00000+0 0  9996
2 44543  54.5503 227.6637 0006249 327.0949 240.9966  1.86231968 21005
BEIDOU-3 IGSO-3         
1 44709U 19073A   22299.39502076 -.00000174  00000+0  10000-3 0  9996
2 44709  57.0528 295.0217 0027084 183.5424 178.3120  1.00269388 11110
BEIDOU-3 M21            
1 44793U 19078A   22298.53967530 -.00000062  00000+0  10000-3 0  9995
2 44793  54.9212 346.1387 0004923   8.6073   5.1373  1.86232310 19876
BEIDOU-3 M22            
1 44794U 19078B   22298.10327089 -.00000062  00000+0  00000+0 0  9993
2 44794  54.8956 346.1424 0002964 358.3987 354.6421  1.86232734 19859
BEIDOU-3 M19            
1 44864U 19090A   22299.21736235  .00000063  00000+0  00000+0 0  9995
2 44864  55.4932 107.1665 0014881 268.6346 305.7084  1.86231855 19465
BEIDOU-3 M20            
1 44865U 19090B   22299.06315861  .00000064  00000+0  00000+0 0  9998
2 44865  55.4946 107.2035 0012855 284.3837 276.4190  1.86231814 19436
BEIDOU-3 G2             
1 45344U 20017A   22299.45893868 -.00000131  00000+0  00000+0 0  9999
2 45344   2.0077 358.8251 0003154 174.1629 107.0908  1.00273007  9928
BEIDOU-3 G3             
1 45807U 20040A   22299.46504271 -.00000342  00000+0  00000+0 0  9991
2 45807   1.1571 308.0549 0008497 339.7543  24.9350  1.00276543  8742
